NOAA 1 [-]              
1 04793U 70106A   21341.44370212 -.00000019  00000+0  15411-3 0  9996
2 04793 101.5874  44.8885 0031348 336.1634  35.4878 12.54001928334000
NOAA 2 (ITOS-D) [-]     
1 06235U 72082A   21340.69060127 -.00000041  00000+0  29321-4 0  9992
2 06235 101.9293 316.9194 0004260  81.7112  92.1896 12.53141236247824
NOAA 3 [-]              
1 06920U 73086A   21340.94061351 -.00000045  00000+0  48749-5 0  9996
2 06920 102.1829 317.0908 0006468 288.1722 133.4228 12.40343979176924
NOAA 4 [-]              
1 07529U 74089A   21340.72411414 -.00000045  00000+0  68882-5 0  9991
2 07529 101.8881 315.0016 0009139 111.6110 299.4348 12.53152838152400
NOAA 5 [-]              
1 09057U 76077A   21340.65678412 -.00000040  00000+0  38028-4 0  9996
2 09057 102.0700 305.9242 0009788 132.9285  40.5016 12.37764964 49884
TIROS N [-]             
1 11060U 78096A   21340.90377974  .00000061  00000+0  50734-4 0  9993
2 11060  98.6658  34.4734 0010118 343.3039  16.7802 14.18337198444318
NOAA 6 [-]              
1 11416U 79057A   21341.48324296  .00000053  00000+0  35345-4 0  9991
2 11416  98.6673 347.0232 0011372 103.8969 256.3481 14.33673907214228
NOAA 7 [-]              
1 12553U 81059A   21341.14136041  .00000002  00000+0  24018-4 0  9990
2 12553  99.0276  17.8953 0010663 305.3149  54.7027 14.17308061 90774
NOAA 8 [-]              
1 13923U 83022A   21340.91530712  .00000016  00000+0  23933-4 0  9991
2 13923  98.6710 327.3920 0016015  54.9827 305.2855 14.28758653 14917
NOAA 9 [-]              
1 15427U 84123A   21340.92512130  .00000006  00000+0  26294-4 0  9992
2 15427  99.0192 305.5777 0014833 355.1984  68.0025 14.16155466909591
NOAA 10 [-]             
1 16969U 86073A   21341.49886372  .00000008  00000+0  20694-4 0  9995
2 16969  98.5498 326.3980 0012657 151.0645 318.3403 14.28155690833692
NOAA 11 [-]             
1 19531U 88089A   21340.76509198 -.00000020  00000+0  10674-4 0  9991
2 19531  98.4113 335.5922 0011535  19.8716 340.2906 14.15285417713567
NOAA 12 [-]             
1 21263U 91032A   21340.95274282 -.00000001  00000+0  17599-4 0  9994
2 21263  98.5088 341.2478 0013677 178.0738 182.0497 14.25958102589292
NOAA 13 [-]             
1 22739U 93050A   21341.45279798  .00000013  00000+0  29238-4 0  9993
2 22739  98.4842 326.0606 0009645 167.0696 193.0726 14.12803822460180
NOAA 14 [-]             
1 23455U 94089A   21340.89703976  .00000009  00000+0  26237-4 0  9990
2 23455  98.4710  12.7874 0009993 152.1309 208.0402 14.14174497389491
NOAA 15 [B]             
1 25338U 98030A   21341.31883844  .00000049  00000+0  38929-4 0  9998
2 25338  98.6659   8.1610 0011161 133.9271 226.2832 14.26074348225887
NOAA 16 [-]             
1 26536U 00055A   21340.90411230  .00000031  00000+0  39087-4 0  9996
2 26536  98.6663  41.1764 0010406   1.3763 358.7437 14.13295852390151
NOAA 17 [-]             
1 27453U 02032A   21340.91601803  .00000018  00000+0  26172-4 0  9996
2 27453  98.6492 283.6729 0012843 109.9974 250.2589 14.25081533 11437
NOAA 18 [B]             
1 28654U 05018A   21341.48092963  .00000135  00000+0  96871-4 0  9994
2 28654  98.9749  46.8628 0014840 151.0480 209.1518 14.12664325852963
NOAA 19 [+]             
1 33591U 09005A   21341.31943167  .00000049  00000+0  51579-4 0  9993
2 33591  99.1705   6.2063 0014040  11.4230 348.7257 14.12513225661321
SUOMI NPP [+]           
1 37849U 11061A   21341.42150668  .00000012  00000+0  26138-4 0  9999
2 37849  98.7140 277.8247 0001148 105.3253   2.6638 14.19567925523949
NOAA 20 [+]             
1 43013U 17073A   21341.43432162  .00000021  00000+0  30962-4 0  9991
2 43013  98.7380 277.5570 0000844  96.7551 263.3721 14.19563551209982
